[{"OBJECT_NAME":"STARLINK-5521","OBJECT_ID":"2023-064Z","EPOCH":"2026-03-09T12:49:55.294464","MEAN_MOTION":14.98327281,"ECCENTRICITY":0.00028776,"INCLINATION":69.9998,"RA_OF_ASC_NODE":124.9485,"ARG_OF_PERICENTER":266.8459,"MEAN_ANOMALY":93.2371,"EPHEMERIS_TYPE":0,"CLASSIFICATION_TYPE":"U","NORAD_CAT_ID":56471,"ELEMENT_SET_NO":999,"REV_AT_EPOCH":15571,"BSTAR":-5.1809779e-5,"MEAN_MOTION_DOT":-7.11e-6,"MEAN_MOTION_DDOT":0},{"OBJECT_NAME":"CZ-6A DEB","OBJECT_ID":"2024-140AEQ","EPOCH":"2026-03-08T12:33:24.076512","MEAN_MOTION":14.8870666,"ECCENTRICITY":0.00636681,"INCLINATION":88.9441,"RA_OF_ASC_NODE":276.789,"ARG_OF_PERICENTER":190.9278,"MEAN_ANOMALY":169.0572,"EPHEMERIS_TYPE":0,"CLASSIFICATION_TYPE":"U","NORAD_CAT_ID":64650,"ELEMENT_SET_NO":999,"REV_AT_EPOCH":7602,"BSTAR":0.0049237892,"MEAN_MOTION_DOT":0.00048011,"MEAN_MOTION_DDOT":0}]
